ONEWEB-0086             
1 45456U 20020AJ  24089.48984939  .00000299  00000+0  80656-3 0  9992
2 45456  87.9037 182.0705 0001735  91.2686 268.8641 13.11414383196483
ONEWEB-0088             
1 45457U 20020AK  24090.23010062  .00000385  00000+0  10492-2 0  9991
2 45457  87.9035 181.8928 0001968  99.8040 260.3310 13.11419225196527
ONEWEB-0102             
1 47258U 20100A   24089.87821113 -.00000200  00000+0 -59167-3 0  9997
2 47258  87.8998 151.7804 0002070 105.8057 254.3300 13.12443353158570
ONEWEB-0109             
1 47259U 20100B   24089.88615248 -.00000394  00000+0 -11312-2 0  9992
2 47259  87.8999 151.7421 0001995 105.6478 254.4870 13.12443550158401
ONEWEB-0110             
1 47260U 20100C   24090.21493035  .00000041  00000+0  77386-4 0  9993
2 47260  87.8995 151.6870 0001864 104.3511 255.7824 13.12443428158615
ONEWEB-0111             
1 47261U 20100D   24089.86709042  .00000206  00000+0  53628-3 0  9996
2 47261  87.8999 151.7485 0001951 103.7149 256.4196 13.12444295158400
ONEWEB-0114             
1 47262U 20100E   24089.43984669 -.00000391  00000+0 -11231-2 0  9990
2 47262  87.8996 151.8520 0002286 113.5835 246.5534 13.12443335158301
ONEWEB-0117             
1 47263U 20100F   24089.88932530 -.00000379  00000+0 -10879-2 0  9993
2 47263  87.8996 151.7343 0002012 100.2952 259.8403 13.12444548158370
